# From NK 1615
P/1996 R2 (Lagerkvist),e,2.5993,40.0539,333.4605,3.773324,0.1344677,0.31442576,278.9800,10/21.0/2024,2000,g 11.5,4.0
# From MPC 75703
P/1998 VS24 (LINEAR),e,5.0285,159.0530,244.8126,4.521707,0.1025063,0.24367525,252.2285,10/21.0/2024,2000,g 13.0,2.0
# From unp
P/1999 D1 (Hermann),e,21.2543,348.7586,173.8354,5.786064,0.0708156,0.71320081,309.0627,10/21.0/2024,2000,g  9.0,4.0
# From unp
P/1999 R1 (SOHO),e,11.4280,351.6034,56.8599,2.508433,0.2480848,0.97997795,0.0000,08/21.0402/2023,2000,g  9.0,4.0
# From NK 731
P/1999 RO28 (LONEOS),e,7.5667,137.8517,231.3447,3.425636,0.1554506,0.67228398,301.8199,10/21.0/2024,2000,g 20.0,2.0
# From MPC 75704
P/1999 XN120 (Catalina),e,5.0295,285.2514,161.6617,4.180169,0.1153223,0.21108466,310.7432,10/21.0/2024,2000,g 13.5,2.0
# From unp
P/2000 QJ46 (LINEAR),e,4.4327,158.0983,222.2784,5.790720,0.0707302,0.67544818,253.4288,10/21.0/2024,2000,g  9.0,4.0
# From NK 744
P/2000 R2 (LINEAR),e,11.6796,160.2811,176.5882,3.468693,0.1525651,0.53073161,297.8630,10/21.0/2024,2000,g 18.0,4.0
# From unp
P/2001 BB50 (LINEAR-NEAT),e,10.3270,351.1494,193.3414,5.752556,0.0714353,0.58605660,266.3322,10/21.0/2024,2000,g 13.0,4.0
# From MPC 43019
P/2001 H5 (NEAT),e,8.3704,328.6566,224.6141,6.095300,0.0654955,0.59871502,216.2884,10/21.0/2024,2000,g 12.0,4.0
# From MPEC 2023-UR6
P/2002 EJ57 (LINEAR),e,4.9860,330.2432,167.2610,6.456463,0.0600775,0.59354395,139.1375,10/21.0/2024,2000,g 12.5,4.0
# From MPC 75007
C/2002 VQ94 (LINEAR),e,70.6911,35.1393,99.8158,185.8556,0.0003890,0.96361047,2.6567,10/21.0/2024,2000,g  9.5,2.0
# From MPC 50354
P/2003 F2 (NEAT),e,11.6684,358.9024,192.5470,6.513511,0.0592900,0.54145727,106.8611,10/21.0/2024,2000,g 16.5,2.0
# From MPC 50139
P/2003 QX29 (NEAT),e,11.3993,264.5333,37.6651,8.002757,0.0435356,0.47155824,347.3698,10/21.0/2024,2000,g  8.5,4.0
# From MPC105235
P/2003 T12 (SOHO),e,11.0251,174.5772,219.7849,2.584028,0.2372785,0.77025650,25.9214,10/21.0/2024,2000,g 17.0,4.0
# From unp
P/2003 U3 (NEAT),e,7.0161,347.9283,357.0398,5.042438,0.0870449,0.51058339,317.2922,10/21.0/2024,2000,g 12.0,4.0
# From MPEC 2022-YN2
P/2004 FY140 (LINEAR),e,2.1624,327.2641,254.1506,4.969784,0.0889606,0.19242986,284.0537,10/21.0/2024,2000,g 12.5,2.0
# From unp
P/2004 H2 (Larsen),e,11.7748,131.3750,104.6899,4.526707,0.1023365,0.41683771,45.2648,10/21.0/2024,2000,g  9.0,4.0
# From MPC 53304
P/2004 R3 (LINEAR-NEAT),e,12.7964,305.1209,37.4017,4.750926,0.0951780,0.25437336,107.5564,10/21.0/2024,2000,g 14.5,4.0
# From MPC 75705
P/2004 V5 (LINEAR-Hill),e,19.3443,47.7413,87.2801,8.028169,0.0433291,0.44774358,315.7859,10/21.0/2024,2000,g  8.0,4.0
# From MPC 75705
P/2004 V5-B (LINEAR-Hill),e,19.3444,47.7416,87.2837,8.028504,0.0433263,0.44776465,315.7467,10/21.0/2024,2000,g  8.0,4.0
# From MPC 54164
P/2005 E1 (Tubbiolo),e,4.2611,335.5132,193.8827,7.065470,0.0524798,0.37688648,20.4234,10/21.0/2024,2000,g 10.0,4.0
# From unp
P/2005 GF8 (LONEOS),e,1.1658,312.8353,285.4013,5.757026,0.0713521,0.51383812,132.8856,10/21.0/2024,2000,g  9.0,4.0
# From MPC 79019
P/2005 J1 (McNaught),e,31.7407,268.8004,338.9187,3.573881,0.1458794,0.56921659,321.5284,10/21.0/2024,2000,g 16.5,4.0
# From MPC 74246
P/2005 L1 (McNaught),e,7.8810,132.2519,155.7686,3.980326,0.1241155,0.23434624,131.5698,10/21.0/2024,2000,g  9.5,4.0
# From MPC 75706
P/2005 S2 (Skiff),e,3.1376,161.3451,229.8699,7.988851,0.0436493,0.19876535,292.0837,10/21.0/2024,2000,g  7.5,4.0
# From MPC 73461
P/2005 T3 (Read),e,6.2297,27.6348,6.9457,7.581375,0.0472152,0.17504121,328.5684,10/21.0/2024,2000,g  9.0,4.0
# From MPC 73461
P/2005 T4 (SWAN),e,160.2724,25.8998,41.8517,9.352925,0.0344574,0.93040484,239.1579,10/21.0/2024,2000,g 15.0,4.0
# From MPC 75706
P/2005 T5 (Broughton),e,21.3832,57.0669,304.7600,7.263706,0.0503462,0.55206791,348.0752,10/21.0/2024,2000,g 11.0,4.0
# From MPEC 2024-DD5
P/2005 XR132 (Spacewatch),e,14.4752,265.3952,240.7678,3.757901,0.1352964,0.43260882,192.6505,10/21.0/2024,2000,g 16.0,4.0
# From unp
P/2005 Y2 (McNaught),e,19.1532,93.8007,193.3633,6.289855,0.0624803,0.46439903,92.0222,10/21.0/2024,2000,g  9.0,4.0
# From MPEC 2024-JU4
P/2006 AH2 (Sheppard-Tholen),e,10.0162,261.6457,196.0389,6.847897,0.0550007,0.41711871,23.2724,10/21.0/2024,2000,g 13.0,4.0
# From unp
P/2006 F4 (Spacewatch),e,12.4280,183.5476,31.3898,3.487596,0.1513264,0.35012833,285.6559,10/21.0/2024,2000,g  9.0,4.0
# From MPC 75707
P/2006 HR30 (Siding Spring),e,31.9391,309.7839,117.4766,7.800172,0.0452426,0.84365884,294.4435,10/21.0/2024,2000,g 11.0,4.0
# From unp
P/2006 XG16 (Spacewatch),e,9.0627,78.4046,40.9154,3.638409,0.1420158,0.41928919,198.9646,10/21.0/2024,2000,g  9.0,4.0
# From MPC 75707
P/2007 C2 (Catalina),e,8.6124,275.2411,180.1487,7.014584,0.0530519,0.47358545,332.5958,10/21.0/2024,2000,g 10.0,4.0
# From MPC 84315
C/2007 D1 (LINEAR),e,41.5086,171.1044,339.7039,1175,0.0000245,0.99256064,0.0000,06/11.7248/2007,2000,g  3.5,4.0
# From MPEC 2024-GJ3
P/2007 K2 (Gibbs),e,7.6079,188.5345,347.1609,7.345879,0.0495038,0.68584605,319.0061,10/21.0/2024,2000,g 14.0,4.0
# From MPC 60925
P/2007 Q2 (Gilmore),e,10.1968,172.2125,162.8693,5.661196,0.0731715,0.66909332,104.2800,10/21.0/2024,2000,g 16.0,4.0
# From MPC 73462
P/2007 S1 (Zhao),e,5.9640,141.3313,245.2461,3.817707,0.1321296,0.33823014,98.4813,10/21.0/2024,2000,g 13.0,4.0
# From MPEC 2024-GJ3
C/2007 S2 (Lemmon),e,16.9069,296.1224,210.1583,12.49849,0.0223058,0.55631583,131.5106,10/21.0/2024,2000,g  6.5,4.0
# From MPC 61994
P/2007 T2 (Kowalski),e,9.7503,3.3874,359.6708,3.043655,0.1856141,0.78558371,62.8132,10/21.0/2024,2000,g 18.5,4.0
# From MPEC 2024-GJ3
C/2008 E1 (Catalina),e,34.8662,188.9703,270.2935,10.76498,0.0279052,0.55264135,164.8542,10/21.0/2024,2000,g  7.0,4.0
# From MPC 64114
P/2008 O3 (Boattini),e,32.3246,47.6083,341.1971,8.209143,0.0419042,0.69644506,250.2773,10/21.0/2024,2000,g 13.0,4.0
# From MPC 75710
P/2008 Y3 (McNaught),e,38.7788,262.8441,238.0738,8.041011,0.0432253,0.44764017,250.1083,10/21.0/2024,2000,g  8.5,4.0
# From MPC 75710
P/2009 B1 (Boattini),e,22.2579,297.1069,128.9716,6.729678,0.0564563,0.63605966,325.1473,10/21.0/2024,2000,g 13.0,4.0
# From MPC 66466
C/2009 G1 (STEREO),e,108.1462,120.8183,175.5336,463.2297,0.0000989,0.99754012,0.0000,04/18.0121/2009,2000,g  9.0,4.0
# From MPC 75710
P/2009 O3 (Hill),e,16.2638,183.7153,154.4552,7.769567,0.0455102,0.68657853,255.9123,10/21.0/2024,2000,g 12.5,4.0
# From MPC 68902
P/2009 Q5 (McNaught),e,40.9646,160.2374,209.1936,7.425361,0.0487111,0.60959310,268.2451,10/21.0/2024,2000,g 10.0,4.0
# From unp
P/2009 QG31 (La Sagra),e,5.0509,346.1180,5.6925,3.570180,0.1461063,0.39931239,80.5302,10/21.0/2024,2000,g 14.0,4.0
# From MPC112389
P/2009 T2 (La Sagra),e,27.6097,216.3430,215.9572,7.710386,0.0460352,0.76745016,248.4242,10/21.0/2024,2000,g 14.0,4.0
# From MPC105235
P/2009 WX51 (Catalina),e,9.5958,31.5313,118.2777,3.082530,0.1821139,0.73954033,261.4501,10/21.0/2024,2000,g 19.0,2.0
# From MPC 74247
P/2009 Y2 (Kowalski),e,29.9739,262.0864,172.2009,6.542021,0.0589028,0.63744059,314.5469,10/21.0/2024,2000,g 13.0,4.0
# From MPC 75711
P/2010 A3 (Hill),e,14.8189,63.6441,42.2046,6.102103,0.0653860,0.73435642,350.7526,10/21.0/2024,2000,g 14.0,4.0
# From MPC 75008
P/2010 C1 (Scotti),e,9.1160,141.6064,2.9908,7.124171,0.0518326,0.26316673,285.6880,10/21.0/2024,2000,g  9.5,4.0
# From MPC 75008
P/2010 D2 (WISE),e,57.1276,319.8737,119.9686,6.719961,0.0565788,0.45177663,303.9183,10/21.0/2024,2000,g 16.0,4.0
# From MPC 75009
P/2010 E2 (Jarnac),e,15.4111,177.8107,8.2307,8.637380,0.0388267,0.72031858,207.0405,10/21.0/2024,2000,g 14.0,4.0
# From MPC 72851
P/2010 H2 (Vales),e,14.2796,64.1870,128.0497,3.832687,0.1313557,0.19744201,341.6563,10/21.0/2024,2000,g  6.0,4.0
# From MPC 70361
P/2010 H3 (SOHO),e,23.1542,77.1916,26.0578,3.035745,0.1863400,0.98555178,0.0000,05/25.1849/2026,2000,g 20.0,2.0
# From MPEC 2024-GJ3
P/2010 H4 (Scotti),e,2.3178,44.7398,179.1263,6.614697,0.0579348,0.26670486,305.3548,10/21.0/2024,2000,g 10.5,4.0
# From MPC 74637
P/2010 H5 (Scotti),e,14.0557,24.5735,174.6206,7.174870,0.0512841,0.15411063,274.2031,10/21.0/2024,2000,g 13.0,2.0
# From MPC 98558
P/2010 J3 (McMillan),e,13.2314,106.5319,157.4570,8.987064,0.0365828,0.72423077,189.6336,10/21.0/2024,2000,g 11.0,4.0
# From MPC 84315
P/2010 JC81 (WISE),e,38.7979,30.8681,12.4828,8.102758,0.0427321,0.77826489,210.1988,10/21.0/2024,2000,g  9.0,4.0
# From MPEC 2024-H77
A/2010 LN135,e,64.5665,184.7938,181.5611,26650,0.0000002,0.99993460,0.0000,05/25.7400/2011,2000,g 14.0,2.0
# From MPC 74248
P/2010 T2 (PANSTARRS),e,7.8768,57.9266,350.7878,5.622763,0.0739230,0.32855265,17.4223,10/21.0/2024,2000,g 11.5,4.0
# From MPC 82316
P/2010 U1 (Boattini),e,8.2272,280.8066,86.4892,6.489659,0.0596172,0.24873671,318.9642,10/21.0/2024,2000,g  9.5,4.0
# From MPEC 2023-J95
C/2010 U3 (Boattini),e,55.5610,42.9892,88.0593,8008,0.0000014,0.99894631,0.0000,02/27.1150/2019,2000,g  1.0,4.0
# From MPC 79021
P/2010 UH55 (Spacewatch),e,8.0366,232.8616,225.2413,6.650710,0.0574648,0.56462380,284.1324,10/21.0/2024,2000,g 11.0,4.0
# From MPC 84021
P/2011 C2 (Gibbs),e,10.8915,11.9554,160.2799,7.411422,0.0488486,0.27046325,229.8415,10/21.0/2024,2000,g  9.0,4.0
# From MPEC 2013-Y32
P/2011 CR42 (Catalina),e,8.4591,58.7140,172.6536,3.511180,0.1498044,0.28004595,347.5542,10/21.0/2024,2000,g  9.0,4.0
# From MPC 79866
P/2011 FR143 (Lemmon),e,15.9654,190.8573,349.7123,6.877124,0.0546505,0.45210326,274.4365,10/21.0/2024,2000,g 14.0,2.0
# From MPC 82317
P/2011 JB15 (Spacewatch-Boattini),e,19.1282,153.5798,110.8069,7.377805,0.0491828,0.31461930,230.1179,10/21.0/2024,2000,g  9.0,4.0
# From MPC 87913
P/2011 N1 (ASH),e,35.7871,77.6295,330.4610,6.236490,0.0632840,0.54556317,286.2318,10/21.0/2024,2000,g 11.5,4.0
# From MPEC 2022-ED3
P/2011 P1 (McNaught),e,5.6542,4.2746,349.1987,7.459409,0.0483779,0.32680666,251.0619,10/21.0/2024,2000,g  9.0,4.0
# From MPEC 2022-HC2
P/2011 S1 (Gibbs),e,2.6890,218.8958,192.8218,8.591517,0.0391381,0.20147062,145.2552,10/21.0/2024,2000,g  8.0,4.0
# From MPC 79022
